CCSDS_OMM_VERS = 2.0
CREATION_DATE  = 
ORIGINATOR     = 

OBJECT_NAME    = UNKNOWN
OBJECT_ID      = 
CENTER_NAME    = EARTH
REF_FRAME      = TEME
TIME_SYSTEM    = UTC
MEAN_ELEMENT_THEORY = SGP/SGP4

EPOCH          = 2025-11-10T09:37:43.901184
MEAN_MOTION    = 13.22984780
ECCENTRICITY   = .0159227
INCLINATION    = 100.3443
RA_OF_ASC_NODE = 12.9982
ARG_OF_PERICENTER = 219.9861
MEAN_ANOMALY   = 138.9442

EPHEMERIS_TYPE = 0
CLASSIFICATION_TYPE = U
NORAD_CAT_ID   = 270073
ELEMENT_SET_NO = 999
REV_AT_EPOCH   = 28738
BSTAR          = .25135116E-2
MEAN_MOTION_DOT = .1085E-4
MEAN_MOTION_DDOT = 0

CCSDS_OMM_VERS = 2.0
CREATION_DATE  = 
ORIGINATOR     = 

OBJECT_NAME    = UNKNOWN
OBJECT_ID      = 
CENTER_NAME    = EARTH
REF_FRAME      = TEME
TIME_SYSTEM    = UTC
MEAN_ELEMENT_THEORY = SGP/SGP4

EPOCH          = 2025-11-03T01:58:29.745408
MEAN_MOTION    = 12.85982539
ECCENTRICITY   = .04641447
INCLINATION    = 63.2994
RA_OF_ASC_NODE = 243.3000
ARG_OF_PERICENTER = 14.5339
MEAN_ANOMALY   = 346.8495

EPHEMERIS_TYPE = 0
CLASSIFICATION_TYPE = U
NORAD_CAT_ID   = 270074
ELEMENT_SET_NO = 999
REV_AT_EPOCH   = 27858
BSTAR          = .16193556E-2
MEAN_MOTION_DOT = .562E-5
MEAN_MOTION_DDOT = 0

CCSDS_OMM_VERS = 2.0
CREATION_DATE  = 
ORIGINATOR     = 

OBJECT_NAME    = UNKNOWN
OBJECT_ID      = 
CENTER_NAME    = EARTH
REF_FRAME      = TEME
TIME_SYSTEM    = UTC
MEAN_ELEMENT_THEORY = SGP/SGP4

EPOCH          = 2025-11-09T15:40:05.624832
MEAN_MOTION    = 14.29657641
ECCENTRICITY   = .01001654
INCLINATION    = 99.2790
RA_OF_ASC_NODE = 277.2653
ARG_OF_PERICENTER = 228.0756
MEAN_ANOMALY   = 131.1852

EPHEMERIS_TYPE = 0
CLASSIFICATION_TYPE = U
NORAD_CAT_ID   = 270075
ELEMENT_SET_NO = 999
REV_AT_EPOCH   = 30348
BSTAR          = .92327847E-2
MEAN_MOTION_DOT = .25021E-3
MEAN_MOTION_DDOT = 0

CCSDS_OMM_VERS = 2.0
CREATION_DATE  = 
ORIGINATOR     = 

OBJECT_NAME    = UNKNOWN
OBJECT_ID      = 
CENTER_NAME    = EARTH
REF_FRAME      = TEME
TIME_SYSTEM    = UTC
MEAN_ELEMENT_THEORY = SGP/SGP4

EPOCH          = 2025-11-09T17:34:21.273888
MEAN_MOTION    = 13.66586144
ECCENTRICITY   = .02690771
INCLINATION    = 98.3445
RA_OF_ASC_NODE = 120.8617
ARG_OF_PERICENTER = 1.3938
MEAN_ANOMALY   = 358.7903

EPHEMERIS_TYPE = 0
CLASSIFICATION_TYPE = U
NORAD_CAT_ID   = 270077
ELEMENT_SET_NO = 999
REV_AT_EPOCH   = 29644
BSTAR          = .10374917E-2
MEAN_MOTION_DOT = .1069E-4
MEAN_MOTION_DDOT = 0

CCSDS_OMM_VERS = 2.0
CREATION_DATE  = 
ORIGINATOR     = 

OBJECT_NAME    = UNKNOWN
OBJECT_ID      = 
CENTER_NAME    = EARTH
REF_FRAME      = TEME
TIME_SYSTEM    = UTC
MEAN_ELEMENT_THEORY = SGP/SGP4

EPOCH          = 2025-11-09T15:53:40.041600
MEAN_MOTION    = 14.35769417
ECCENTRICITY   = .00168118
INCLINATION    = 86.3914
RA_OF_ASC_NODE = 92.5877
ARG_OF_PERICENTER = 342.2108
MEAN_ANOMALY   = 17.8498

EPHEMERIS_TYPE = 0
CLASSIFICATION_TYPE = U
NORAD_CAT_ID   = 270078
ELEMENT_SET_NO = 999
REV_AT_EPOCH   = 31169
BSTAR          = .42183196E-3
MEAN_MOTION_DOT = .124E-4
MEAN_MOTION_DDOT = 0

CCSDS_OMM_VERS = 2.0
CREATION_DATE  = 
ORIGINATOR     = 

OBJECT_NAME    = UNKNOWN
OBJECT_ID      = 
CENTER_NAME    = EARTH
REF_FRAME      = TEME
TIME_SYSTEM    = UTC
MEAN_ELEMENT_THEORY = SGP/SGP4

EPOCH          = 2025-11-04T20:14:27.548160
MEAN_MOTION    = 12.38292907
ECCENTRICITY   = .01609895
INCLINATION    = 56.0447
RA_OF_ASC_NODE = 161.3274
ARG_OF_PERICENTER = 349.7843
MEAN_ANOMALY   = 9.9801

EPHEMERIS_TYPE = 0
CLASSIFICATION_TYPE = U
NORAD_CAT_ID   = 270079
ELEMENT_SET_NO = 999
REV_AT_EPOCH   = 26865
BSTAR          = .52023388E-3
MEAN_MOTION_DOT = -.21E-6
MEAN_MOTION_DDOT = 0

CCSDS_OMM_VERS = 2.0
CREATION_DATE  = 
ORIGINATOR     = 

OBJECT_NAME    = UNKNOWN
OBJECT_ID      = 
CENTER_NAME    = EARTH
REF_FRAME      = TEME
TIME_SYSTEM    = UTC
MEAN_ELEMENT_THEORY = SGP/SGP4

EPOCH          = 2025-11-04T20:20:49.424064
MEAN_MOTION    = 12.96530154
ECCENTRICITY   = .00182901
INCLINATION    = 90.2437
RA_OF_ASC_NODE = 345.1283
ARG_OF_PERICENTER = 325.8306
MEAN_ANOMALY   = 34.1636

EPHEMERIS_TYPE = 0
CLASSIFICATION_TYPE = U
NORAD_CAT_ID   = 270081
ELEMENT_SET_NO = 999
REV_AT_EPOCH   = 28092
BSTAR          = .23477479E-2
MEAN_MOTION_DOT = .68E-5
MEAN_MOTION_DDOT = 0

CCSDS_OMM_VERS = 2.0
CREATION_DATE  = 
ORIGINATOR     = 

OBJECT_NAME    = UNKNOWN
OBJECT_ID      = 
CENTER_NAME    = EARTH
REF_FRAME      = TEME
TIME_SYSTEM    = UTC
MEAN_ELEMENT_THEORY = SGP/SGP4

EPOCH          = 2025-11-06T13:58:17.517216
MEAN_MOTION    = 13.98224212
ECCENTRICITY   = .0221214
INCLINATION    = 74.0151
RA_OF_ASC_NODE = 60.6107
ARG_OF_PERICENTER = 230.9815
MEAN_ANOMALY   = 127.1442

EPHEMERIS_TYPE = 0
CLASSIFICATION_TYPE = U
NORAD_CAT_ID   = 270082
ELEMENT_SET_NO = 999
REV_AT_EPOCH   = 30224
BSTAR          = .31853717E-2
MEAN_MOTION_DOT = .5572E-4
MEAN_MOTION_DDOT = 0

CCSDS_OMM_VERS = 2.0
CREATION_DATE  = 
ORIGINATOR     = 

OBJECT_NAME    = UNKNOWN
OBJECT_ID      = 
CENTER_NAME    = EARTH
REF_FRAME      = TEME
TIME_SYSTEM    = UTC
MEAN_ELEMENT_THEORY = SGP/SGP4

EPOCH          = 2025-11-10T15:26:00.755520
MEAN_MOTION    = 15.23757321
ECCENTRICITY   = .00109996
INCLINATION    = 74.0185
RA_OF_ASC_NODE = 285.9069
ARG_OF_PERICENTER = 141.0027
MEAN_ANOMALY   = 219.1968

EPHEMERIS_TYPE = 0
CLASSIFICATION_TYPE = U
NORAD_CAT_ID   = 270083
ELEMENT_SET_NO = 999
REV_AT_EPOCH   = 31681
BSTAR          = .51302285E-2
MEAN_MOTION_DOT = .125708E-2
MEAN_MOTION_DDOT = 0

CCSDS_OMM_VERS = 2.0
CREATION_DATE  = 
ORIGINATOR     = 

OBJECT_NAME    = UNKNOWN
OBJECT_ID      = 
CENTER_NAME    = EARTH
REF_FRAME      = TEME
TIME_SYSTEM    = UTC
MEAN_ELEMENT_THEORY = SGP/SGP4

EPOCH          = 2025-11-08T11:14:54.388320
MEAN_MOTION    = 13.77570679
ECCENTRICITY   = .04022929
INCLINATION    = 72.8752
RA_OF_ASC_NODE = 226.3914
ARG_OF_PERICENTER = 302.1727
MEAN_ANOMALY   = 54.0955

EPHEMERIS_TYPE = 0
CLASSIFICATION_TYPE = U
NORAD_CAT_ID   = 270084
ELEMENT_SET_NO = 999
REV_AT_EPOCH   = 29524
BSTAR          = .68124505E-2
MEAN_MOTION_DOT = .12376E-3
MEAN_MOTION_DDOT = 0

CCSDS_OMM_VERS = 2.0
CREATION_DATE  = 
ORIGINATOR     = 

OBJECT_NAME    = UNKNOWN
OBJECT_ID      = 
CENTER_NAME    = EARTH
REF_FRAME      = TEME
TIME_SYSTEM    = UTC
MEAN_ELEMENT_THEORY = SGP/SGP4

EPOCH          = 2025-11-08T00:20:12.619680
MEAN_MOTION    = 12.80395657
ECCENTRICITY   = .06594274
INCLINATION    = 99.2717
RA_OF_ASC_NODE = 223.8031
ARG_OF_PERICENTER = 51.2741
MEAN_ANOMALY   = 314.5447

EPHEMERIS_TYPE = 0
CLASSIFICATION_TYPE = U
NORAD_CAT_ID   = 270085
ELEMENT_SET_NO = 999
REV_AT_EPOCH   = 27700
BSTAR          = .10162477E-1
MEAN_MOTION_DOT = .583E-4
MEAN_MOTION_DDOT = 0

CCSDS_OMM_VERS = 2.0
CREATION_DATE  = 
ORIGINATOR     = 

OBJECT_NAME    = UNKNOWN
OBJECT_ID      = 
CENTER_NAME    = EARTH
REF_FRAME      = TEME
TIME_SYSTEM    = UTC
MEAN_ELEMENT_THEORY = SGP/SGP4

EPOCH          = 2025-11-06T13:15:37.548288
MEAN_MOTION    = 14.89159373
ECCENTRICITY   = .00264228
INCLINATION    = 86.3492
RA_OF_ASC_NODE = 55.3827
ARG_OF_PERICENTER = 213.0898
MEAN_ANOMALY   = 146.8676

EPHEMERIS_TYPE = 0
CLASSIFICATION_TYPE = U
NORAD_CAT_ID   = 270086
ELEMENT_SET_NO = 999
REV_AT_EPOCH   = 7618
BSTAR          = .66750915E-2
MEAN_MOTION_DOT = .6395E-3
MEAN_MOTION_DDOT = 0

CCSDS_OMM_VERS = 2.0
CREATION_DATE  = 
ORIGINATOR     = 

OBJECT_NAME    = UNKNOWN
OBJECT_ID      = 
CENTER_NAME    = EARTH
REF_FRAME      = TEME
TIME_SYSTEM    = UTC
MEAN_ELEMENT_THEORY = SGP/SGP4

EPOCH          = 2025-10-28T03:32:50.863488
MEAN_MOTION    = 12.81374795
ECCENTRICITY   = .07197096
INCLINATION    = 72.8108
RA_OF_ASC_NODE = 260.1739
ARG_OF_PERICENTER = 113.7847
MEAN_ANOMALY   = 254.0355

EPHEMERIS_TYPE = 0
CLASSIFICATION_TYPE = U
NORAD_CAT_ID   = 270087
ELEMENT_SET_NO = 999
REV_AT_EPOCH   = 27567
BSTAR          = .39014454E-2
MEAN_MOTION_DOT = .273E-4
MEAN_MOTION_DDOT = 0

CCSDS_OMM_VERS = 2.0
CREATION_DATE  = 
ORIGINATOR     = 

OBJECT_NAME    = UNKNOWN
OBJECT_ID      = 
CENTER_NAME    = EARTH
REF_FRAME      = TEME
TIME_SYSTEM    = UTC
MEAN_ELEMENT_THEORY = SGP/SGP4

EPOCH          = 2025-11-09T10:47:43.518336
MEAN_MOTION    = 12.25962960
ECCENTRICITY   = .01362165
INCLINATION    = 74.0256
RA_OF_ASC_NODE = 225.1559
ARG_OF_PERICENTER = 206.4311
MEAN_ANOMALY   = 152.9735

EPHEMERIS_TYPE = 0
CLASSIFICATION_TYPE = U
NORAD_CAT_ID   = 270088
ELEMENT_SET_NO = 999
REV_AT_EPOCH   = 26651
BSTAR          = .22554985E-3
MEAN_MOTION_DOT = .11E-6
MEAN_MOTION_DDOT = 0

CCSDS_OMM_VERS = 2.0
CREATION_DATE  = 
ORIGINATOR     = 

OBJECT_NAME    = UNKNOWN
OBJECT_ID      = 
CENTER_NAME    = EARTH
REF_FRAME      = TEME
TIME_SYSTEM    = UTC
MEAN_ELEMENT_THEORY = SGP/SGP4

EPOCH          = 2025-11-05T14:03:18.329184
MEAN_MOTION    = 14.23769364
ECCENTRICITY   = .00359962
INCLINATION    = 98.8486
RA_OF_ASC_NODE = 258.0106
ARG_OF_PERICENTER = 177.6166
MEAN_ANOMALY   = 182.5191

EPHEMERIS_TYPE = 0
CLASSIFICATION_TYPE = U
NORAD_CAT_ID   = 270089
ELEMENT_SET_NO = 999
REV_AT_EPOCH   = 30874
BSTAR          = .17449078E-3
MEAN_MOTION_DOT = .356E-5
MEAN_MOTION_DDOT = 0

CCSDS_OMM_VERS = 2.0
CREATION_DATE  = 
ORIGINATOR     = 

OBJECT_NAME    = UNKNOWN
OBJECT_ID      = 
CENTER_NAME    = EARTH
REF_FRAME      = TEME
TIME_SYSTEM    = UTC
MEAN_ELEMENT_THEORY = SGP/SGP4

EPOCH          = 2025-11-09T09:00:46.357920
MEAN_MOTION    = 14.47354955
ECCENTRICITY   = .00113685
INCLINATION    = 97.9856
RA_OF_ASC_NODE = 180.1875
ARG_OF_PERICENTER = 196.5180
MEAN_ANOMALY   = 163.5645

EPHEMERIS_TYPE = 0
CLASSIFICATION_TYPE = U
NORAD_CAT_ID   = 270090
ELEMENT_SET_NO = 999
REV_AT_EPOCH   = 31366
BSTAR          = .27024838E-3
MEAN_MOTION_DOT = .95E-5
MEAN_MOTION_DDOT = 0

